[{"OBJECT_NAME":"STARLINK-34454","OBJECT_ID":"2025-126P","EPOCH":"2026-03-09T22:22:27.532704","MEAN_MOTION":14.98342465,"ECCENTRICITY":0.00025639,"INCLINATION":70.0032,"RA_OF_ASC_NODE":34.0251,"ARG_OF_PERICENTER":261.2501,"MEAN_ANOMALY":98.8368,"EPHEMERIS_TYPE":0,"CLASSIFICATION_TYPE":"U","NORAD_CAT_ID":64357,"ELEMENT_SET_NO":999,"REV_AT_EPOCH":4071,"BSTAR":0.00052411451,"MEAN_MOTION_DOT":6.168e-5,"MEAN_MOTION_DDOT":0},{"OBJECT_NAME":"LEMUR-2-KARENDARRELL","OBJECT_ID":"2025-135BU","EPOCH":"2026-03-09T21:08:31.963200","MEAN_MOTION":14.98475386,"ECCENTRICITY":0.00078103,"INCLINATION":97.7605,"RA_OF_ASC_NODE":185.4061,"ARG_OF_PERICENTER":183.1489,"MEAN_ANOMALY":176.9686,"EPHEMERIS_TYPE":0,"CLASSIFICATION_TYPE":"U","NORAD_CAT_ID":64841,"ELEMENT_SET_NO":999,"REV_AT_EPOCH":3913,"BSTAR":0.00091115502,"MEAN_MOTION_DOT":0.00010849,"MEAN_MOTION_DDOT":0}]
